#aV2022  9 27  0  0  0.00000000     288 DD+AD WGS84 FIT  NGA
## 2229 172800.00000000   300.00000000 59849 0.0000000000000
+   32     1  2  3  4  5  6  7  8  9 10 11 12 13 14 15 16 17
+         18 19 20 21 22 23 24 25 26 27 28 29 30 31 32  0  0
+          0  0  0  0  0  0  0  0  0  0  0  0  0  0  0  0  0
+          0  0  0  0  0  0  0  0  0  0  0  0  0  0  0  0  0
+          0  0  0  0  0  0  0  0  0  0  0  0  0  0  0  0  0
++         2  2  2  2  2  2  2  2  2  2  2  2  2  2  2  2  2
++         2  2  2  2  2  2  2  2  2  2  2  2  2  2  2  0  0
++         0  0  0  0  0  0  0  0  0  0  0  0  0  0  0  0  0
++         0  0  0  0  0  0  0  0  0  0  0  0  0  0  0  0  0
++         0  0  0  0  0  0  0  0  0  0  0  0  0  0  0  0  0
%c cc cc ccc ccc cccc cccc cccc cccc ccccc ccccc ccccc ccccc
%c cc cc ccc ccc cccc cccc cccc cccc ccccc ccccc ccccc ccccc
%f  0.0000000  0.000000000  0.00000000000  0.000000000000000
%f  0.0000000  0.000000000  0.00000000000  0.000000000000000
%i    0    0    0    0      0      0      0      0         0
%i    0    0    0    0      0      0      0      0         0
/*      NGA, ST. LOUIS,MO.                                  
/*   EPHEMERIS COMPUTED FROM 2 DAYS OF DATA                 
/*   EPOCHA v8 SMOOTHER                                     
/*   G2139 IERS2010 SATIGS SATAPC                           
*  2022  9 27 23 20  0.00000000
P  1 -22157.912260 -14582.990197  -3721.621768    276.611225                    
V  1   4523.947820    615.365029 -31689.221404     -0.063396                    
P  2  19095.891479  15639.056350  10242.979234   -644.506256                    
V  2 -12073.100556  -2552.971829  28331.251188      0.014089                    
P  3 -11772.383549 -17482.703668  16097.710514   -357.505653                    
V  3    580.547829 -20656.359348 -21734.588085     -0.052552                    
P  4 -16360.651491  -6436.118654  19941.027236   -112.228890                    
V  4  21167.117597 -13866.431433  12796.362965      0.058296                    
P  5   7023.668477  24675.976364  -6787.839995    -98.288198                    
V  5  -1931.829465   8629.909337  30284.722711     -0.014152                    
P  6  -9131.234690  11664.862815  22109.379731    474.631139                    
V  6 -24605.447432 -13033.542922  -3223.385870      0.117941                    
P  7 -24205.778291  -4364.943572 -10210.170690    303.921035                    
V  7 -10774.097333  -8401.977262  27502.825593     -0.033864                    
P  8  -7765.086052 -13092.531795 -21794.217392    -86.421555                    
V  8  22995.168062 -15246.794608   1319.815389     -0.014822                    
P  9 -22790.293340   4336.126299  12892.693792   -290.569439                    
V  9  12340.440435 -11205.258102  25388.575730      0.049499                    
P 10  11640.973421 -15014.610799 -18276.705020     -5.134610                    
V 10   2719.652157  23486.410628 -17719.060545     -0.015735                    
P 11   2394.302903  17407.652373  19928.241928    -20.132885                    
V 11 -22385.952574 -11800.111129  12962.346845     -0.035100                    
P 12  10340.884922  18670.761023  15609.992264   -285.179658                    
V 12  -2282.792637  20203.685130 -22173.594148     -0.060180                    
P 13  -1925.679266  16613.755746 -20758.155871    395.707591                    
V 13 -23945.979388  10157.094545  10616.222685      0.071728                    
P 14 -13338.085115  12957.397876 -18914.766044   -100.183290                    
V 14  -1878.195796 -24083.235308 -15274.528790      0.032108                    
P 15   9760.805781  12777.199947 -21573.029056    -25.470415                    
V 15 -20359.866696  16965.879845   1151.817601      0.031292                    
P 16    244.774068 -26290.533038  -1199.932810   -525.194829                    
V 16   3044.450597  -1087.527193  32155.933046     -0.008376                    
P 17 -22943.694494  13438.913491    799.441626    663.405037                    
V 17  -1510.895252  -1718.298639 -32059.592904      0.036860                    
P 18  23491.720902   3296.854034 -12094.158365     33.879738                    
V 18  12529.996708   8950.478667  26655.847718     -0.130093                    
P 19 -17929.751003  16531.636478   9968.054010    216.448494                    
V 19 -12722.375340   3781.788942 -28721.171175      0.050606                    
P 20   -128.659948  25590.469742   7550.987923    482.892120                    
V 20  -4857.737012  -8717.096320  29264.322574     -0.031008                    
P 21 -18247.085306 -15936.283486 -11083.013926    158.861895                    
V 21  14408.584130   3763.598317 -26890.460251     -0.005432                    
P 22  14962.015610 -18033.932455  12754.589624    335.629890                    
V 22  14834.539980  -5316.236727 -25942.291672      0.068785                    
P 23  14686.785594  -3825.548794 -21797.834395     -0.519640                    
V 23   2443.855666  27528.764864  -3311.872307     -0.004065                    
P 24  20796.448678  15013.629866  -8008.439556    120.301444                    
V 24 -10068.079582   -946.648346 -28675.787308     -0.136627                    
P 25  15020.701390   6528.706191  20670.727578    376.618553                    
V 25    786.707390  26876.155249  -8666.861315      0.040316                    
P 26   4321.852235 -24256.292762   9396.392007    230.315153                    
V 26   4811.671096  11749.766576  28181.431666      0.015425                    
P 27   4865.508957 -18329.683071 -18643.909198    206.274631                    
V 27  20417.364499 -11418.171607  17134.604474     -0.050614                    
P 28  -9470.491628  21367.304969 -12337.286515    334.954599                    
V 28  -1419.388391 -16453.842832 -26096.643405     -0.034009                    
P 29  22644.444440  -1722.263164  13797.036658   -555.167499                    
V 29 -14609.182971   9830.428737  25042.144492     -0.031486                    
P 30 -18398.206423   5518.721722 -18355.365555   -537.167216                    
V 30 -19927.519815 -12552.668056  15866.824375     -0.001334                    
P 31   8869.534942 -12525.371402  21550.414477   -194.875641                    
V 31  24343.463059  13233.418977  -1858.156190     -0.013151                    
P 32  20854.236874 -16050.907223   2844.371331   -246.296513                    
V 32   4543.528435    633.487544 -31562.986919     -0.115690                    
EOF
